CUTE-1 (CO-55)          
1 27844U 03031E   20007.83386502  .00000043  00000-0  38809-4 0  9995
2 27844  98.6833  17.9993 0010234 157.9386 202.2234 14.22214659857169
CUBESAT XI-IV (CO-57)   
1 27848U 03031J   20006.82852152  .00000031  00000-0  33983-4 0  9991
2 27848  98.6906  17.5472 0009871 172.2276 187.9056 14.21804609856861
CUBESAT XI-V            
1 28895U 05043F   20007.81447473  .00000089  00000-0  25953-4 0  9996
2 28895  97.9850 148.9476 0017984  72.5491 287.7676 14.63727330757196
CUTE-1.7+APD II (CO-65) 
1 32785U 08021C   20007.78742293  .00000207  00000-0  27954-4 0  9997
2 32785  97.5606   3.0447 0011960 314.4159  45.6078 14.88400188633893
AAUSAT-II               
1 32788U 08021F   20007.81201279  .00000102  00000-0  14328-4 0  9993
2 32788  97.4921  19.5108 0010503 234.5135 125.5107 14.94908959635269
DELFI-C3 (DO-64)        
1 32789U 08021G   20006.84951236  .00000773  00000-0  55008-4 0  9995
2 32789  97.4407  55.1739 0013072 147.8500 212.3528 15.07370697637318
SEEDS II (CO-66)        
1 32791U 08021J   20007.05928892  .00000279  00000-0  33614-4 0  9994
2 32791  97.5332   8.4717 0011839 285.8357  74.1557 14.90947058634267
SWISSCUBE               
1 35932U 09051B   20007.00678246  .00000094  00000-0  32247-4 0  9994
2 35932  98.6001 184.1310 0006560 264.1211  95.9238 14.56346206546222
BEESAT-1                
1 35933U 09051C   20007.75360168  .00000100  00000-0  33468-4 0  9992
2 35933  98.6012 186.7344 0004732 277.2214  82.8445 14.56428109546449
ITUPSAT1                
1 35935U 09051E   20007.72265423  .00000079  00000-0  29272-4 0  9992
2 35935  98.6122 186.9226 0007037 274.8891  85.1502 14.55580070546174
TISAT 1                 
1 36799U 10035E   20006.72810784  .00000488  00000-0  55141-4 0  9998
2 36799  98.1761 170.9185 0013125 139.5191 220.7005 14.91241828514679
M-CUBED & EXP-1 PRIME   
1 37855U 11061F   20007.48091156  .00001018  00000-0  58302-4 0  9992
2 37855 101.7267  12.3551 0172123 195.4931 164.0975 15.05922475447297
AEROCUBE 4.5A           
1 38767U 12048K   20007.16043136  .00000243  00000-0  33697-4 0  9990
2 38767  64.6661  23.7484 0161468 189.4839 170.3217 14.92129164 17589
AEROCUBE 4.5B           
1 38768U 12048L   20007.16363275  .00000314  00000-0  36872-4 0  9997
2 38768  64.6670 355.1319 0150280 186.4051 173.5147 14.95740305 17601
STRAND-1                
1 39090U 13009E   20006.83969090  .00000032  00000-0  26433-4 0  9993
2 39090  98.4677 214.2138 0010044  52.4715 307.7382 14.35112854359380
SOMP                    
1 39134U 13015E   20007.81167553  .00001310  00000-0  67803-4 0  9998
2 39134  64.8633  82.1462 0037982 270.6632  89.0143 15.20636036371479
BEESAT-3                
1 39135U 13015F   20006.65032362  .00001036  00000-0  59763-4 0  9990
2 39135  64.8666 107.0825 0044528 272.2677  87.3351 15.17835947370500
BEESAT-2                
1 39136U 13015G   20006.89632369  .00000888  00000-0  53958-4 0  9994
2 39136  64.8716 110.7253 0031021 280.1439  79.6188 15.17259619370453
NEE-01 PEGASO           
1 39151U 13018B   20007.22376168  .00000115  00000-0  22177-4 0  9996
2 39151  97.9731 107.2139 0015692 265.2618  94.6802 14.80114487361684
ESTCUBE 1               
1 39161U 13021C   20007.19062422  .00000141  00000-0  30179-4 0  9992
2 39161  97.9778  93.4143 0010537  45.0238 315.1829 14.72268431358161
POPACS 1                
1 39268U 13055D   20006.70608479  .00003454  00000-0  95072-4 0  9994
2 39268  81.0031 108.0811 0620881 345.3554  13.0318 14.38263825326061
POPACS 2                
1 39269U 13055E   20006.83591476  .00001606  00000-0  44324-4 0  9998
2 39269  81.0149 142.1927 0681360  73.6147 293.8787 14.24842680324048
POPACS 3                
1 39270U 13055F   20007.10431978  .00002147  00000-0  65262-4 0  9996
2 39270  81.0156 161.3611 0712366 128.8731 237.8246 14.16476121322842
ZACUBE-1 (TSHEPISOSAT)  
1 39417U 13066B   20007.50944586  .00000218  00000-0  33465-4 0  9996
2 39417  97.5611  14.5928 0060406  89.0362 271.7772 14.81203022331067
WNISAT-1                
1 39423U 13066H   20007.56772377  .00000097  00000-0  28750-4 0  9992
2 39423  97.7972 300.1550 0176171  40.6815 320.7405 14.53085788324914
TRITON-1                
1 39427U 13066M   20007.45532640  .00000114  00000-0  26498-4 0  9998
2 39427  97.7033 337.6064 0112461 236.0410 123.0067 14.67927203328087
GOMX-1                  
1 39430U 13066Q   20007.78849608  .00000191  00000-0  43859-4 0  9998
2 39430  97.7726 316.2472 0150754 334.4780  24.9037 14.59335595326224
CUBEBUG-2 (LO-74)       
1 39440U 13066AA  20007.46424727  .00000176  00000-0  31295-4 0  9999
2 39440  97.6157 359.0755 0080952 145.4297 215.2215 14.75939752329887
NEE-02 KRYSAOR          
1 39441U 13066AB  20007.50353262  .00000112  00000-0  22887-4 0  9997
2 39441  97.6219 356.7343 0082338 153.2554 207.2938 14.74966623329695
FUNCUBE-1 (AO-73)       
1 39444U 13066AE  20007.73451154  .00000262  00000-0  38314-4 0  9992
2 39444  97.5572  16.9302 0059487  81.4506 279.3443 14.82040143330004
UWE-3                   
1 39446U 13066AG  20007.79794738  .00000195  00000-0  32322-4 0  9996
2 39446  97.5880   6.5698 0071293 116.7419 244.1112 14.78474672329278
AEROCUBE 5A             
1 39465U 13072D   20007.04263745  .00003505  00000-0  30044-3 0  9997
2 39465 120.4960 295.6323 0281067  79.2557 284.0005 14.74763793 17390
AEROCUBE 5B             
1 39466U 13072E   20007.14104907  .00006923  00000-0  48247-3 0  9994
2 39466 120.4929 324.1760 0256426  85.9688 277.0635 14.83911843 17469
BRITE-CA1 (TORONTO)     
1 40020U 14033L   20007.78804226  .00000094  00000-0  24437-4 0  9990
2 40020  97.7315 205.2204 0086362 228.0476 131.3347 14.66613988297067
DUCHIFAT-1              
1 40021U 14033M   20007.05723217  .00000257  00000-0  31966-4 0  9997
2 40021  97.9343 297.4027 0014261 101.2367 259.0454 14.90779777301695
NANOSATC-BR1            
1 40024U 14033Q   20006.85627690  .00000271  00000-0  34060-4 0  9999
2 40024  97.9216 294.0789 0013528 105.4758 254.7955 14.89969401301028
QB50P1                  
1 40025U 14033R   20006.84028944  .00000180  00000-0  25066-4 0  9991
2 40025  97.9115 291.2205 0013713 111.7251 248.5427 14.89049093300898
QB50P2                  
1 40032U 14033Y   20007.51032470  .00000213  00000-0  28923-4 0  9995
2 40032  97.9021 289.6900 0013178 106.5619 253.7046 14.88580039301413
PERSEUS-M2              
1 40037U 14033AD  20007.51094723  .00000049  00000-0  11726-4 0  9999
2 40037  97.8910 285.0555 0015590 120.3835 239.8924 14.86506185301108
PERSEUS-M1              
1 40039U 14033AF  20006.87318867  .00000081  00000-0  15481-4 0  9995
2 40039  97.8883 283.3548 0015441 120.2335 240.0411 14.86126005300429
POLYITAN-1              
1 40042U 14033AJ  20006.80801282  .00000323  00000-0  40491-4 0  9998
2 40042  97.9196 291.6128 0015894 103.1662 257.1329 14.88776270301304
TIGRISAT                
1 40043U 14033AK  20007.14956982  .00000098  00000-0  21717-4 0  9994
2 40043  97.7288 231.0300 0060298 161.8846 198.4531 14.74328421298435
AEROCUBE 6A             
1 40045U 14033AM  20007.34133761  .00000215  00000-0  38062-4 0  9992
2 40045  97.7535 235.9119 0058037 153.3821 207.0389 14.75494720298446
AEROCUBE 6B             
1 40046U 14033AN  20007.14577045  .00000216  00000-0  38159-4 0  9996
2 40046  97.7455 235.1692 0057521 153.1424 207.2784 14.75473425298552
UKUBE-1                 
1 40074U 14037F   20007.77035708  .00000275  00000-0  40146-4 0  9999
2 40074  98.4490 186.5079 0003377 290.7401  69.3431 14.84169601297778
BRITE-PL2 (HEWELIUSZ)   
1 40119U 14049B   20006.73967896  .00000063  00000-0  13998-4 0  9999
2 40119  97.9004 100.5652 0016030 281.6612  78.2803 14.84459083291557
FIREBIRD 4              
1 40378U 15003C   20007.02019763  .00001480  00000-0  60856-4 0  9990
2 40378  99.1153  33.9645 0126302 135.7936 225.3470 15.19479212272645
GRIFEX                  
1 40379U 15003D   20007.79434823  .00000970  00000-0  44915-4 0  9994
2 40379  99.1200  27.7356 0134483 155.0806 205.6996 15.15980748272358
EXOCUBE (CP10)          
1 40380U 15003E   20006.78897491  .00000996  00000-0  48103-4 0  9999
2 40380  99.1255  22.6414 0139137 171.3091 189.0593 15.13971398271948
AEROCUBE 8A             
1 40659U 15025J   20006.59169289  .00011182  00000-0  13411-3 0  9990
2 40659  55.0181 324.4462 0121237 113.0120 248.3756 15.53116495 18212
AEROCUBE 8B             
1 40660U 15025K   20007.50393211  .00009573  00000-0  11500-3 0  9996
2 40660  55.0155 318.5924 0120416 116.9486 244.3909 15.53408674 18362
TIANWANG 1C (TW-1C)     
1 40926U 15051B   20007.70947559  .00016194  00000-0  19952-3 0  9998
2 40926  97.1099  58.8778 0006596 349.7348 104.3970 15.60260853241765
TIANWANG 1A (TW-1A)     
1 40928U 15051D   20007.90818494  .00002692  00000-0  65449-4 0  9998
2 40928  97.1276  39.6046 0012389  60.2226  61.7066 15.41772215240474
EXACTVIEW 9             
1 40936U 15052G   20007.53113757  .00000711  00000-0  10424-4 0  9990
2 40936   6.0048  54.8497 0010064 134.5290 225.5660 14.76534928231252
AEROCUBE 5C             
1 40965U 15058B   20006.85548740 -.00000002  00000-0  19517-4 0  9992
2 40965  64.7785 276.3302 0173589 134.2387 227.3121 14.74459749 17333
AEROCUBE 7              
1 40966U 15058C   20007.47849110  .00000080  00000-0  29051-4 0  9996
2 40966  64.7784 273.1478 0172395 133.7581 227.7941 14.74746812 17420
ATHENOXAT 1             
1 41168U 15077C   20007.78145636  .00001744  00000-0  56232-4 0  9997
2 41168  14.9869 167.3066 0011480  37.6836 322.4288 15.14022446224809
GALASSIA                
1 41170U 15077E   20006.80875638  .00001735  00000-0  55070-4 0  9993
2 41170  14.9872 166.8464 0012738  49.8914 310.2522 15.14337217224723
VELOX-II                
1 41171U 15077F   20007.71172611  .00001318  00000-0  37175-4 0  9999
2 41171  14.9897 199.3808 0008892 328.4177  31.5610 15.11468031224511
